STARLINK-31609          
1 59269U 24050R   26068.60630096  .00000851  00000+0  40853-4 0  9991
2 59269  53.1609 181.5288 0001047  78.8623 281.2496 15.30187672110538
NUSAT-49 (KLARA DAN VO*)
1 60500U 24149AJ  26068.79810190  .00012912  00000+0  43568-3 0  9991
2 60500  97.3807 150.7380 0001132 286.7761  73.3356 15.30828857 86935
